{"type": "FeatureCollection", "features": [ {"type": "Feature", "properties": {"norad_id": 66546, "name": "SHIJIAN-30B (SJ-30B)", "group": "last-30-days", "lat": -0.7076603675476725, "lon": 121.9849895288278, "alt_km": 526.9101407429862, "timestamp": "2025-12-19T10:49:59.921443+00:00", "meta": {"OBJECT_NAME": "SHIJIAN-30B (SJ-30B)", "OBJECT_ID": "2025-266B", "EPOCH": "2025-12-18T22:57:41.185152", "MEAN_MOTION": 15.15569701, "ECCENTRICITY": 0.00107602, "INCLINATION": 51.7981, "RA_OF_ASC_NODE": 303.746, "ARG_OF_PERICENTER": 21.6134, "MEAN_ANOMALY": 338.5295, "EPHEMERIS_TYPE": 0, "CLASSIFICATION_TYPE": "U", "NORAD_CAT_ID": 66546, "ELEMENT_SET_NO": 999, "REV_AT_EPOCH": 452, "BSTAR": 0.00055846363, "MEAN_MOTION_DOT": 0.00010449, "MEAN_MOTION_DDOT": 0}, "tle": {"line1": "1 66546U 25266B   25352.95672668  .00010449  00000+0  55846-3 0  9992", "line2": "2 66546  51.7981 303.7460 0010760  21.6134 338.5295 15.15569701  4520"}}, "geometry": {"type": "Point", "coordinates": [121.9849895288278, -0.7076603675476725]}}, {"type": "Feature", "properties": {"norad_id": 66547, "name": "SHIJIAN-30C (SJ-30C)", "group": "last-30-days", "lat": 2.0925786404239433, "lon": 119.7884283716268, "alt_km": 527.5038535918466, "timestamp": "2025-12-19T10:49:59.921454+00:00", "meta": {"OBJECT_NAME": "SHIJIAN-30C (SJ-30C)", "OBJECT_ID": "2025-266C", "EPOCH": "2025-12-18T22:58:35.502240", "MEAN_MOTION": 15.15508324, "ECCENTRICITY": 0.00116163, "INCLINATION": 51.7992, "RA_OF_ASC_NODE": 303.7524, "ARG_OF_PERICENTER": 13.3442, "MEAN_ANOMALY": 346.784, "EPHEMERIS_TYPE": 0, "CLASSIFICATION_TYPE": "U", "NORAD_CAT_ID": 66547, "ELEMENT_SET_NO": 999, "REV_AT_EPOCH": 452, "BSTAR": 0.00049316594, "MEAN_MOTION_DOT": 9.174e-05, "MEAN_MOTION_DDOT": 0}, "tle": {"line1": "1 66547U 25266C   25352.95735535  .00009174  00000+0  49317-3 0  9995", "line2": "2 66547  51.7992 303.7524 0011616  13.3442 346.7840 15.15508324  4526"}}, "geometry": {"type": "Point", "coordinates": [119.7884283716268, 2.0925786404239433]}}, {"type": "Feature", "properties": {"norad_id": 66548, "name": "CZ-2C R/B", "group": "last-30-days", "lat": -31.30691640223641, "lon": -89.03153236549, "alt_km": 509.1879884880909, "timestamp": "2025-12-19T10:49:59.921465+00:00", "meta": {"OBJECT_NAME": "CZ-2C R/B", "OBJECT_ID": "2025-266D", "EPOCH": "2025-12-18T06:48:12.971808", "MEAN_MOTION": 15.302969, "ECCENTRICITY": 0.00836165, "INCLINATION": 52.0555, "RA_OF_ASC_NODE": 304.8654, "ARG_OF_PERICENTER": 192.2011, "MEAN_ANOMALY": 167.6951, "EPHEMERIS_TYPE": 0, "CLASSIFICATION_TYPE": "U", "NORAD_CAT_ID": 66548, "ELEMENT_SET_NO": 999, "REV_AT_EPOCH": 446, "BSTAR": 0.0003317341, "MEAN_MOTION_DOT": 0.00010588, "MEAN_MOTION_DDOT": 0}, "tle": {"line1": "1 66548U 25266D   25352.28348347  .00010588  00000+0  33173-3 0  9997", "line2": "2 66548  52.0555 304.8654 0083616 192.2011 167.6951 15.30296900  4467"}}, "geometry": {"type": "Point", "coordinates": [-89.03153236549, -31.30691640223641]}}, {"type": "Feature", "properties": {"norad_id": 66549, "name": "SHIJIAN-28 (SJ-28)", "group": "last-30-days", "lat": 5.009119054109275, "lon": 7.602848060471395, "alt_km": 35783.1861060118, "timestamp": "2025-12-19T10:49:59.921482+00:00", "meta": {"OBJECT_NAME": "SHIJIAN-28 (SJ-28)", "OBJECT_ID": "2025-277A", "EPOCH": "2025-12-18T21:09:51.572160", "MEAN_MOTION": 1.00269059, "ECCENTRICITY": 0.00010241, "INCLINATION": 5.0035, "RA_OF_ASC_NODE": 274.8608, "ARG_OF_PERICENTER": 136.6654, "MEAN_ANOMALY": 110.5088, "EPHEMERIS_TYPE": 0, "CLASSIFICATION_TYPE": "U", "NORAD_CAT_ID": 66549, "ELEMENT_SET_NO": 999, "REV_AT_EPOCH": 34, "BSTAR": 0, "MEAN_MOTION_DOT": -3.3e-06, "MEAN_MOTION_DDOT": 0}, "tle": {"line1": "1 66549U 25277A   25352.88184690 -.00000330  00000+0  00000+0 0  9999", "line2": "2 66549   5.0035 274.8608 0001024 136.6654 110.5088  1.00269059   340"}}, "geometry": {"type": "Point", "coordinates": [7.602848060471395, 5.009119054109275]}}, {"type": "Feature", "properties": {"norad_id": 66550, "name": "CZ-7A R/B", "group": "last-30-days", "lat": 5.35090130690974, "lon": -72.26999616542784, "alt_km": 27708.258884129467, "timestamp": "2025-12-19T10:49:59.921499+00:00", "meta": {"OBJECT_NAME": "CZ-7A R/B", "OBJECT_ID": "2025-277B", "EPOCH": "2025-12-12T23:59:46.063680", "MEAN_MOTION": 2.69999213, "ECCENTRICITY": 0.70164962, "INCLINATION": 14.3833, "RA_OF_ASC_NODE": 269.7494, "ARG_OF_PERICENTER": 189.2871, "MEAN_ANOMALY": 143.2042, "EPHEMERIS_TYPE": 0, "CLASSIFICATION_TYPE": "U", "NORAD_CAT_ID": 66550, "ELEMENT_SET_NO": 999, "REV_AT_EPOCH": 35, "BSTAR": 0.0022608485, "MEAN_MOTION_DOT": 0.01807848, "MEAN_MOTION_DDOT": -2.55676e-07}, "tle": {"line1": "1 66550U 25277B   25346.99983870  .01807848 -25568-6  22608-2 0  9997", "line2": "2 66550  14.3833 269.7494 7016496 189.2871 143.2042  2.69999213   350"}}, "geometry": {"type": "Point", "coordinates": [-72.26999616542784, 5.35090130690974]}}, {"type": "Feature", "properties": {"norad_id": 66554, "name": "GLOBAL-33", "group": "last-30-days", "lat": 21.483485017979604, "lon": 44.15866252370924, "alt_km": 468.1880461846695, "timestamp": "2025-12-19T10:49:59.921520+00:00", "meta": {"OBJECT_NAME": "GLOBAL-33", "OBJECT_ID": "2025-267A", "EPOCH": "2025-12-18T12:46:43.636800", "MEAN_MOTION": 15.31616871, "ECCENTRICITY": 0.00032005, "INCLINATION": 42.0244, "RA_OF_ASC_NODE": 23.55, "ARG_OF_PERICENTER": 137.3862, "MEAN_ANOMALY": 222.7224, "EPHEMERIS_TYPE": 0, "CLASSIFICATION_TYPE": "U", "NORAD_CAT_ID": 66554, "ELEMENT_SET_NO": 999, "REV_AT_EPOCH": 429, "BSTAR": 0.00035788106, "MEAN_MOTION_DOT": 0.00010928, "MEAN_MOTION_DDOT": 0}, "tle": {"line1": "1 66554U 25267A   25352.53244950  .00010928  00000+0  35788-3 0  9990", "line2": "2 66554  42.0244  23.5500 0003200 137.3862 222.7224 15.31616871  4299"}}, "geometry": {"type": "Point", "coordinates": [44.15866252370924, 21.483485017979604]}}, {"type": "Feature", "properties": {"norad_id": 66555, "name": "ELECTRON KICK STAGE R/B", "group": "last-30-days", "lat": 30.189093873483824, "lon": 157.75719662352267, "alt_km": 457.34123411004566, "timestamp": "2025-12-19T10:49:59.921532+00:00", "meta": {"OBJECT_NAME": "ELECTRON KICK STAGE R/B", "OBJECT_ID": "2025-267B", "EPOCH": "2025-12-18T23:19:10.835616", "MEAN_MOTION": 15.33100254, "ECCENTRICITY": 0.00067924, "INCLINATION": 42.0195, "RA_OF_ASC_NODE": 20.784, "ARG_OF_PERICENTER": 104.5342, "MEAN_ANOMALY": 255.6249, "EPHEMERIS_TYPE": 0, "CLASSIFICATION_TYPE": "U", "NORAD_CAT_ID": 66555, "ELEMENT_SET_NO": 999, "REV_AT_EPOCH": 436, "BSTAR": 0.00063018599, "MEAN_MOTION_DOT": 0.00020407, "MEAN_MOTION_DDOT": 0}, "tle": {"line1": "1 66555U 25267B   25352.97165319  .00020407  00000+0  63019-3 0  9991", "line2": "2 66555  42.0195  20.7840 0006792 104.5342 255.6249 15.33100254  4364"}}, "geometry": {"type": "Point", "coordinates": [157.75719662352267, 30.189093873483824]}}, {"type": "Feature", "properties": {"norad_id": 66557, "name": "STARLINK-35699", "group": "last-30-days", "lat": 7.49222371686679, "lon": -106.16765702100257, "alt_km": 413.3582980863939, "timestamp": "2025-12-19T10:49:59.921543+00:00", "meta": {"OBJECT_NAME": "STARLINK-35699", "OBJECT_ID": "2025-268A", "EPOCH": "2025-12-18T15:33:30.845952", "MEAN_MOTION": 15.50637255, "ECCENTRICITY": 0.00027518, "INCLINATION": 43.0007, "RA_OF_ASC_NODE": 86.6453, "ARG_OF_PERICENTER": 262.8822, "MEAN_ANOMALY": 97.1726, "EPHEMERIS_TYPE": 0, "CLASSIFICATION_TYPE": "U", "NORAD_CAT_ID": 66557, "ELEMENT_SET_NO": 999, "REV_AT_EPOCH": 554, "BSTAR": 0.0019900857, "MEAN_MOTION_DOT": 0.00118442, "MEAN_MOTION_DDOT": 0}, "tle": {"line1": "1 66557U 25268A   25352.64827368  .00118442  00000+0  19901-2 0  9994", "line2": "2 66557  43.0007  86.6453 0002751 262.8822  97.1726 15.50637255  5547"}}, "geometry": {"type": "Point", "coordinates": [-106.16765702100257, 7.49222371686679]}}, {"type": "Feature", "properties": {"norad_id": 66558, "name": "STARLINK-35695", "group": "last-30-days", "lat": 6.138544803339447, "lon": -104.68681652215072, "alt_km": 414.0725788835898, "timestamp": "2025-12-19T10:49:59.921553+00:00", "meta": {"OBJECT_NAME": "STARLINK-35695", "OBJECT_ID": "2025-268B", "EPOCH": "2025-12-18T15:33:01.453536", "MEAN_MOTION": 15.50675208, "ECCENTRICITY": 0.00030746, "INCLINATION": 43.0007, "RA_OF_ASC_NODE": 86.6426, "ARG_OF_PERICENTER": 282.1097, "MEAN_ANOMALY": 77.9418, "EPHEMERIS_TYPE": 0, "CLASSIFICATION_TYPE": "U", "NORAD_CAT_ID": 66558, "ELEMENT_SET_NO": 999, "REV_AT_EPOCH": 554, "BSTAR": 0.0019407607, "MEAN_MOTION_DOT": 0.00115616, "MEAN_MOTION_DDOT": 0}, "tle": {"line1": "1 66558U 25268B   25352.64793349  .00115616  00000+0  19408-2 0  9998", "line2": "2 66558  43.0007  86.6426 0003074 282.1097  77.9418 15.50675208  5540"}}, "geometry": {"type": "Point", "coordinates": [-104.68681652215072, 6.138544803339447]}}, {"type": "Feature", "properties": {"norad_id": 66559, "name": "STARLINK-35419", "group": "last-30-days", "lat": 4.911741244495596, "lon": -103.35482499556907, "alt_km": 413.65223847261495, "timestamp": "2025-12-19T10:49:59.921564+00:00", "meta": {"OBJECT_NAME": "STARLINK-35419", "OBJECT_ID": "2025-268C", "EPOCH": "2025-12-18T15:32:31.605792", "MEAN_MOTION": 15.50639958, "ECCENTRICITY": 0.00026393, "INCLINATION": 43.0014, "RA_OF_ASC_NODE": 86.64, "ARG_OF_PERICENTER": 262.8994, "MEAN_ANOMALY": 97.1566, "EPHEMERIS_TYPE": 0, "CLASSIFICATION_TYPE": "U", "NORAD_CAT_ID": 66559, "ELEMENT_SET_NO": 999, "REV_AT_EPOCH": 554, "BSTAR": 0.0017569422, "MEAN_MOTION_DOT": 0.00104347, "MEAN_MOTION_DDOT": 0}, "tle": {"line1": "1 66559U 25268C   25352.64758803  .00104347  00000+0  17569-2 0  9990", "line2": "2 66559  43.0014  86.6400 0002639 262.8994  97.1566 15.50639958  5548"}}, "geometry": {"type": "Point", "coordinates": [-103.35482499556907, 4.911741244495596]}}]}